EUTELSAT 139 WEST A     
1 28187U 04008A   26060.40923685 -.00000229  00000+0  00000+0 0  9991
2 28187   5.5554  73.3023 0000840  56.6381 133.1558  1.00833945 80277
EUTELSAT 174A           
1 28924U 05052A   26060.48590284 -.00000008  00000+0  00000+0 0  9998
2 28924   3.9457  77.8648 0006279 264.1306 166.1619  1.00272810 51255
EUTELSAT 33F            
1 29270U 06032A   26060.35183495  .00000138  00000+0  00000+0 0  9993
2 29270   1.3830  83.5127 0003566 258.6142 336.7637  1.00274183 46226
EUTELSAT HOTBIRD 13C    
1 33459U 08065A   26060.43717951 -.00000300  00000+0  00000+0 0  9996
2 33459   2.6735  80.4840 0003798 268.9447 276.8720  1.00269833 46262
EUTELSAT 36B            
1 36101U 09065A   26060.45719961  .00000094  00000+0  00000+0 0  9998
2 36101   0.2191  77.3207 0005907 262.8896  34.1017  1.00270164 59623
EUTELSAT KA-SAT 9A      
1 37258U 10069A   26060.36850338  .00000043  00000+0  00000+0 0  9996
2 37258   0.0566 354.4628 0002663 144.7931 161.5657  1.00271401 42926
EUTELSAT 7 WEST A       
1 37816U 11051A   26060.37434590 -.00000079  00000+0  00000+0 0  9997
2 37816   0.0672   0.7041 0001604 245.3803  40.5204  1.00271293 52793
EUTELSAT 16A            
1 37836U 11057A   26060.30769892  .00000085  00000+0  00000+0 0  9990
2 37836   0.0590 342.8532 0005452 358.7406 304.2688  1.00270370  6253
EUTELSAT 21B            
1 38992U 12062B   26060.30882560  .00000111  00000+0  00000+0 0  9999
2 38992   0.0677 350.5797 0002842 345.2432 316.0419  1.00270218 48746
EUTELSAT 70B            
1 39020U 12069A   26060.38977264 -.00000062  00000+0  00000+0 0  9999
2 39020   0.0656   2.8285 0002143 316.4314  50.7265  1.00272245 48426
EUTELSAT 117 WEST A     
1 39122U 13012A   26060.51362050 -.00000031  00000+0  00000+0 0  9993
2 39122   0.0593 287.9689 0003066  56.9232 242.5022  1.00272394 47351
EUTELSAT 7B             
1 39163U 13022A   26060.37720593  .00000029  00000+0  00000+0 0  9999
2 39163   0.0693 344.1120 0006277   6.1639 311.6600  1.00271094 46869
EXPRESS-AT1             
1 39612U 14010A   26060.24434532  .00000061  00000+0  00000+0 0  9993
2 39612   0.0239 264.0786 0000492 359.4188  39.4790  1.00271561 43735
EXPRESS-AT2             
1 39613U 14010B   26060.50253223  .00000000  00000+0  00000+0 0  9992
2 39613   0.0269 137.4783 0001377 122.2452 220.3412  1.00268496 43423
EUTELSAT 3B             
1 39773U 14030A   26060.37642590  .00000002  00000+0  00000+0 0  9997
2 39773   0.0663   0.1366 0001381 272.3087  25.3143  1.00272392 42981
EUTELSAT 115 WEST B     
1 40425U 15010B   26060.45730786 -.00000044  00000+0  00000+0 0  9993
2 40425   0.0094 272.9395 0000053   9.6742 286.3691  1.00274322 40317
EUTELSAT 8 WEST B       
1 40875U 15039B   26060.37425925 -.00000084  00000+0  00000+0 0  9994
2 40875   0.0663 349.9344 0003837 350.7943 305.1665  1.00271489 38570
EUTELSAT 9B             
1 41310U 16005A   26060.36850338  .00000043  00000+0  00000+0 0  9996
2 41310   0.0405  71.2519 0004575 246.6923 342.8503  1.00272656 37035
EUTELSAT 65 WEST A      
1 41382U 16014A   26060.43423284 -.00000295  00000+0  00000+0 0  9999
2 41382   0.0658  37.0925 0002300 293.5071 279.7410  1.00273080 36456
EUTELSAT 117 WEST B     
1 41589U 16038B   26060.36017102 -.00000030  00000+0  00000+0 0  9991
2 41589   0.0094 266.0601 0000048   1.8742 263.8885  1.00271438 35584
EUTELSAT 172B           
1 42741U 17029B   26060.37315072 -.00000025  00000+0  00000+0 0  9995
2 42741   0.0181 149.5959 0000196 126.1847 189.6879  1.00271233 32661
EUTELSAT 7C             
1 44334U 19034B   26060.36850338  .00000029  00000+0  00000+0 0  9994
2 44334   0.0732 180.6309 0003416 145.0334 333.1334  1.00269981  5756
EUTELSAT 5 WEST B       
1 44624U 19067A   26060.37486590 -.00000061  00000+0  00000+0 0  9995
2 44624   0.1009 306.7245 0003184  39.6161 302.7357  1.00271952 23358
EUTELSAT KONNECT        
1 45027U 20005B   26060.36850338  .00000031  00000+0  00000+0 0  9997
2 45027   0.0658  98.0796 0001142 218.2186 342.7080  1.00271403 23258
EUTELSAT QUANTUM        
1 49056U 21069B   26060.45659294  .00000000  00000+0  00000+0 0  9998
2 49056   0.0174 127.2671 0002918 211.6428  32.4298  1.00270815 16849
EUTELSAT KONNECT VHTS   
1 53765U 22110A   26060.37633925 -.00000002  00000+0  00000+0 0  9995
2 53765   0.0590 102.1812 0002955 209.0855 346.0480  1.00270182  5750
EUTELSAT HOTBIRD 13F    
1 54048U 22134A   26060.36850338  .00000068  00000+0  00000+0 0  9995
2 54048   0.0599 295.8457 0002150  59.7037 309.2542  1.00271526 12298
EUTELSAT HOTBIRD 13G    
1 54225U 22146A   26060.36850338  .00000069  00000+0  00000+0 0  9996
2 54225   0.0505 235.3822 0001864 311.3288 118.1003  1.00271893  6382
EUTELSAT 10B            
1 54259U 22157A   26060.36850338  .00000049  00000+0  00000+0 0  9993
2 54259   0.0585 101.4633 0000941  35.9894 164.3219  1.00267244 11942
EUTELSAT 36D            
1 59346U 24059A   26060.35183495  .00000137  00000+0  00000+0 0  9998
2 59346   0.0070 104.6171 0000354 205.0389  12.0033  1.00270588  7068
